STARLINK-32707          
1 62478U 24254S   26068.23707882  .00024903  00000+0  91105-3 0  9999
2 62478  43.0003  18.9358 0002324 257.6288 102.4304 15.27592539 67580
TRANSPORTER-12 OBJECT BT
1 62674U 25009BT  26068.71416991  .00013824  00000+0  51029-3 0  9998
2 62674  97.4094 151.5992 0003682 313.5044  46.5889 15.27872239121360
